{"type": "FeatureCollection", "features": [ {"type": "Feature", "properties": {"norad_id": 31716, "name": "FENGYUN 1C DEB", "group": "fengyun-1c-debris", "lat": -40.13604840188111, "lon": -111.74040601985541, "alt_km": 965.3396121477244, "timestamp": "2025-12-07T16:44:04.194978+00:00", "meta": {"OBJECT_NAME": "FENGYUN 1C DEB", "OBJECT_ID": "1999-025CDP", "EPOCH": "2025-11-29T04:21:28.587168", "MEAN_MOTION": 14.03517485, "ECCENTRICITY": 0.01287272, "INCLINATION": 98.5539, "RA_OF_ASC_NODE": 232.9562, "ARG_OF_PERICENTER": 129.7206, "MEAN_ANOMALY": 26.8865, "EPHEMERIS_TYPE": 0, "CLASSIFICATION_TYPE": "U", "NORAD_CAT_ID": 31716, "ELEMENT_SET_NO": 999, "REV_AT_EPOCH": 93929, "BSTAR": 0.0015991138, "MEAN_MOTION_DOT": 2.658e-05, "MEAN_MOTION_DDOT": 0}, "tle": {"line1": "1 31716U 99025CDP 25333.18158087  .00002658  00000+0  15991-2 0  9994", "line2": "2 31716  98.5539 232.9562 0128727 129.7206  26.8865 14.03517485939297"}}, "geometry": {"type": "Point", "coordinates": [-111.74040601985541, -40.13604840188111]}}, {"type": "Feature", "properties": {"norad_id": 31720, "name": "FENGYUN 1C DEB", "group": "fengyun-1c-debris", "lat": -45.943575290706534, "lon": -97.46609656399669, "alt_km": 732.0644950836358, "timestamp": "2025-12-07T16:44:04.194988+00:00", "meta": {"OBJECT_NAME": "FENGYUN 1C DEB", "OBJECT_ID": "1999-025CDT", "EPOCH": "2025-12-06T11:34:46.803360", "MEAN_MOTION": 14.71723784, "ECCENTRICITY": 0.00997846, "INCLINATION": 99.0473, "RA_OF_ASC_NODE": 251.706, "ARG_OF_PERICENTER": 142.8695, "MEAN_ANOMALY": 217.9466, "EPHEMERIS_TYPE": 0, "CLASSIFICATION_TYPE": "U", "NORAD_CAT_ID": 31720, "ELEMENT_SET_NO": 999, "REV_AT_EPOCH": 98144, "BSTAR": 0.001372845, "MEAN_MOTION_DOT": 9.204e-05, "MEAN_MOTION_DDOT": 0}, "tle": {"line1": "1 31720U 99025CDT 25340.48248615  .00009204  00000+0  13728-2 0  9997", "line2": "2 31720  99.0473 251.7060 0099784 142.8695 217.9466 14.71723784981445"}}, "geometry": {"type": "Point", "coordinates": [-97.46609656399669, -45.943575290706534]}}, {"type": "Feature", "properties": {"norad_id": 31721, "name": "FENGYUN 1C DEB", "group": "fengyun-1c-debris", "lat": 13.13321916554151, "lon": -41.108492329178, "alt_km": 1220.339656772282, "timestamp": "2025-12-07T16:44:04.194998+00:00", "meta": {"OBJECT_NAME": "FENGYUN 1C DEB", "OBJECT_ID": "1999-025CDU", "EPOCH": "2025-12-06T17:04:50.699424", "MEAN_MOTION": 13.73769579, "ECCENTRICITY": 0.03172672, "INCLINATION": 99.7805, "RA_OF_ASC_NODE": 320.1887, "ARG_OF_PERICENTER": 199.0999, "MEAN_ANOMALY": 342.4577, "EPHEMERIS_TYPE": 0, "CLASSIFICATION_TYPE": "U", "NORAD_CAT_ID": 31721, "ELEMENT_SET_NO": 999, "REV_AT_EPOCH": 67303, "BSTAR": 0.00061230157, "MEAN_MOTION_DOT": 7.76e-06, "MEAN_MOTION_DDOT": 0}, "tle": {"line1": "1 31721U 99025CDU 25340.71169791  .00000776  00000+0  61230-3 0  9998", "line2": "2 31721  99.7805 320.1887 0317267 199.0999 342.4577 13.73769579673033"}}, "geometry": {"type": "Point", "coordinates": [-41.108492329178, 13.13321916554151]}}, {"type": "Feature", "properties": {"norad_id": 31724, "name": "FENGYUN 1C DEB", "group": "fengyun-1c-debris", "lat": -81.97667926088067, "lon": 89.67726621572182, "alt_km": 629.9658903339405, "timestamp": "2025-12-07T16:44:04.195008+00:00", "meta": {"OBJECT_NAME": "FENGYUN 1C DEB", "OBJECT_ID": "1999-025CDX", "EPOCH": "2025-12-04T06:16:47.265024", "MEAN_MOTION": 14.48822962, "ECCENTRICITY": 0.0152327, "INCLINATION": 97.8549, "RA_OF_ASC_NODE": 344.8228, "ARG_OF_PERICENTER": 268.5146, "MEAN_ANOMALY": 89.8595, "EPHEMERIS_TYPE": 0, "CLASSIFICATION_TYPE": "U", "NORAD_CAT_ID": 31724, "ELEMENT_SET_NO": 999, "REV_AT_EPOCH": 64369, "BSTAR": 0.0052478, "MEAN_MOTION_DOT": 0.00022998, "MEAN_MOTION_DDOT": 0}, "tle": {"line1": "1 31724U 99025CDX 25338.26165816  .00022998  00000+0  52478-2 0  9995", "line2": "2 31724  97.8549 344.8228 0152327 268.5146  89.8595 14.48822962643692"}}, "geometry": {"type": "Point", "coordinates": [89.67726621572182, -81.97667926088067]}}, {"type": "Feature", "properties": {"norad_id": 31725, "name": "FENGYUN 1C DEB", "group": "fengyun-1c-debris", "lat": -72.13980797737082, "lon": -130.3438692064247, "alt_km": 1062.4107934086323, "timestamp": "2025-12-07T16:44:04.195018+00:00", "meta": {"OBJECT_NAME": "FENGYUN 1C DEB", "OBJECT_ID": "1999-025CDY", "EPOCH": "2025-12-06T20:25:54.723648", "MEAN_MOTION": 12.79158181, "ECCENTRICITY": 0.06943792, "INCLINATION": 99.1806, "RA_OF_ASC_NODE": 198.8396, "ARG_OF_PERICENTER": 348.0405, "MEAN_ANOMALY": 10.4909, "EPHEMERIS_TYPE": 0, "CLASSIFICATION_TYPE": "U", "NORAD_CAT_ID": 31725, "ELEMENT_SET_NO": 999, "REV_AT_EPOCH": 86406, "BSTAR": 0.004973853, "MEAN_MOTION_DOT": 3.07e-05, "MEAN_MOTION_DDOT": 0}, "tle": {"line1": "1 31725U 99025CDY 25340.85132782  .00003070  00000+0  49739-2 0  9996", "line2": "2 31725  99.1806 198.8396 0694379 348.0405  10.4909 12.79158181864069"}}, "geometry": {"type": "Point", "coordinates": [-130.3438692064247, -72.13980797737082]}}, {"type": "Feature", "properties": {"norad_id": 31727, "name": "FENGYUN 1C DEB", "group": "fengyun-1c-debris", "lat": 44.401047540832145, "lon": -77.61503039573995, "alt_km": 781.9916404192081, "timestamp": "2025-12-07T16:44:04.195029+00:00", "meta": {"OBJECT_NAME": "FENGYUN 1C DEB", "OBJECT_ID": "1999-025CEA", "EPOCH": "2025-12-04T13:11:26.155392", "MEAN_MOTION": 14.36874527, "ECCENTRICITY": 0.0032129, "INCLINATION": 98.8664, "RA_OF_ASC_NODE": 90.3509, "ARG_OF_PERICENTER": 5.4028, "MEAN_ANOMALY": 55.9527, "EPHEMERIS_TYPE": 0, "CLASSIFICATION_TYPE": "U", "NORAD_CAT_ID": 31727, "ELEMENT_SET_NO": 999, "REV_AT_EPOCH": 71551, "BSTAR": 0.0042451, "MEAN_MOTION_DOT": 0.00012602, "MEAN_MOTION_DDOT": 0}, "tle": {"line1": "1 31727U 99025CEA 25338.54960828  .00012602  00000+0  42451-2 0  9996", "line2": "2 31727  98.8664  90.3509 0032129   5.4028  55.9527 14.36874527715514"}}, "geometry": {"type": "Point", "coordinates": [-77.61503039573995, 44.401047540832145]}}, {"type": "Feature", "properties": {"norad_id": 31731, "name": "FENGYUN 1C DEB", "group": "fengyun-1c-debris", "lat": -69.03027447521964, "lon": -175.86776085612684, "alt_km": 771.1884824106628, "timestamp": "2025-12-07T16:44:04.195039+00:00", "meta": {"OBJECT_NAME": "FENGYUN 1C DEB", "OBJECT_ID": "1999-025CEE", "EPOCH": "2025-11-27T02:07:07.827456", "MEAN_MOTION": 14.40063792, "ECCENTRICITY": 0.00116613, "INCLINATION": 99.3084, "RA_OF_ASC_NODE": 17.9462, "ARG_OF_PERICENTER": 144.9647, "MEAN_ANOMALY": 215.2308, "EPHEMERIS_TYPE": 0, "CLASSIFICATION_TYPE": "U", "NORAD_CAT_ID": 31731, "ELEMENT_SET_NO": 999, "REV_AT_EPOCH": 95605, "BSTAR": 0.0018623031, "MEAN_MOTION_DOT": 5.831e-05, "MEAN_MOTION_DDOT": 0}, "tle": {"line1": "1 31731U 99025CEE 25331.08828504  .00005831  00000+0  18623-2 0  9997", "line2": "2 31731  99.3084  17.9462 0011661 144.9647 215.2308 14.40063792956051"}}, "geometry": {"type": "Point", "coordinates": [-175.86776085612684, -69.03027447521964]}}, {"type": "Feature", "properties": {"norad_id": 31732, "name": "FENGYUN 1C DEB", "group": "fengyun-1c-debris", "lat": -37.82912776095253, "lon": 23.39422903187376, "alt_km": 844.236466846105, "timestamp": "2025-12-07T16:44:04.195049+00:00", "meta": {"OBJECT_NAME": "FENGYUN 1C DEB", "OBJECT_ID": "1999-025CEF", "EPOCH": "2025-11-30T13:10:34.039776", "MEAN_MOTION": 14.12230042, "ECCENTRICITY": 0.0039396, "INCLINATION": 98.5746, "RA_OF_ASC_NODE": 9.8282, "ARG_OF_PERICENTER": 281.0233, "MEAN_ANOMALY": 78.651, "EPHEMERIS_TYPE": 0, "CLASSIFICATION_TYPE": "U", "NORAD_CAT_ID": 31732, "ELEMENT_SET_NO": 999, "REV_AT_EPOCH": 64158, "BSTAR": 0.00035101, "MEAN_MOTION_DOT": 6.08e-06, "MEAN_MOTION_DDOT": 0}, "tle": {"line1": "1 31732U 99025CEF 25334.54900509  .00000608  00000+0  35101-3 0  9996", "line2": "2 31732  98.5746   9.8282 0039396 281.0233  78.6510 14.12230042641585"}}, "geometry": {"type": "Point", "coordinates": [23.39422903187376, -37.82912776095253]}}, {"type": "Feature", "properties": {"norad_id": 31734, "name": "FENGYUN 1C DEB", "group": "fengyun-1c-debris", "lat": -76.85512440399256, "lon": 13.758832306637753, "alt_km": 817.492967543044, "timestamp": "2025-12-07T16:44:04.195059+00:00", "meta": {"OBJECT_NAME": "FENGYUN 1C DEB", "OBJECT_ID": "1999-025CEH", "EPOCH": "2025-12-06T17:34:42.597408", "MEAN_MOTION": 14.28993158, "ECCENTRICITY": 0.01041747, "INCLINATION": 98.4957, "RA_OF_ASC_NODE": 333.0239, "ARG_OF_PERICENTER": 25.158, "MEAN_ANOMALY": 335.4626, "EPHEMERIS_TYPE": 0, "CLASSIFICATION_TYPE": "U", "NORAD_CAT_ID": 31734, "ELEMENT_SET_NO": 999, "REV_AT_EPOCH": 96365, "BSTAR": 0.00084996159, "MEAN_MOTION_DOT": 2.237e-05, "MEAN_MOTION_DDOT": 0}, "tle": {"line1": "1 31734U 99025CEH 25340.73243747  .00002237  00000+0  84996-3 0  9996", "line2": "2 31734  98.4957 333.0239 0104174  25.1580 335.4626 14.28993158963651"}}, "geometry": {"type": "Point", "coordinates": [13.758832306637753, -76.85512440399256]}}, {"type": "Feature", "properties": {"norad_id": 31735, "name": "FENGYUN 1C DEB", "group": "fengyun-1c-debris", "lat": -56.214982151179896, "lon": 98.04028766459832, "alt_km": 715.1751621955109, "timestamp": "2025-12-07T16:44:04.195069+00:00", "meta": {"OBJECT_NAME": "FENGYUN 1C DEB", "OBJECT_ID": "1999-025CEJ", "EPOCH": "2025-12-05T13:23:26.219904", "MEAN_MOTION": 14.42513767, "ECCENTRICITY": 0.00590436, "INCLINATION": 98.5803, "RA_OF_ASC_NODE": 82.8467, "ARG_OF_PERICENTER": 306.2546, "MEAN_ANOMALY": 53.3196, "EPHEMERIS_TYPE": 0, "CLASSIFICATION_TYPE": "U", "NORAD_CAT_ID": 31735, "ELEMENT_SET_NO": 999, "REV_AT_EPOCH": 96561, "BSTAR": 0.00073357883, "MEAN_MOTION_DOT": 2.437e-05, "MEAN_MOTION_DDOT": 0}, "tle": {"line1": "1 31735U 99025CEJ 25339.55794236  .00002437  00000+0  73358-3 0  9991", "line2": "2 31735  98.5803  82.8467 0059043 306.2546  53.3196 14.42513767965610"}}, "geometry": {"type": "Point", "coordinates": [98.04028766459832, -56.214982151179896]}}]}